code;city;school_name;type;nature;specialization;num_vacant;num_potential;address;latitude;longitude;school_type
2551;Toulouse;Ecole Elementaire Application Ricardie 3(0310160f);E;Compensationdécharge dedirecteur;Sans spécialité;0;1;54 avenue de l'URSS 31400 TOULOUSE, 31400 Toulouse;43.58128091546669;1.4498370497215034;Ecole
141909;Toulouse;Ecole Primaire Publique Calas - Dupont(0310161g);E;Compensationdécharge dedirecteur;Sans spécialité;0;1;101 grande rue Saint-Michel 31400 TOULOUSE, 31400 Toulouse;43.589142807932035;1.4455005646511274;Ecole
2552;Toulouse;Ecole Primaire Application Benezet (0310162h) E;E;Compensationdécharge dedirecteur;Sans spécialité;0;1;37 rue Bénézet 31300 TOULOUSE, 31300 Toulouse;43.588239444342975;1.4287502112161503;Ecole
1207;Toulouse;Ecole Maternelle D Application Ricardie 1(0310203c);E;Compensationdécharge dedirecteur;Sans spécialité;0;1;13 avenue Marcel Langer 31400 TOULOUSE, 31400 Toulouse;43.582717646966636;1.4496794002034374;Ecole
188238;Toulouse;Ecole Maternelle Publique Jean Monnet(0310215r);E;Compensationdécharge dedirecteur;Sans spécialité;1;0;11 chemin de l'Eglise de Lalande 31200 TOULOUSE, 31200 Toulouse;43.64666990053572;1.4316885654325708;Ecole
188270;Toulouse;Ecole Primaire Falguiere (0310916c);E;Compensationdécharge dedirecteur;Sans spécialité;1;0;2 rue d'Artagnan 31000 TOULOUSE, 31000 Toulouse;43.60744514784374;1.430000212518502;Ecole
1255;Toulouse;Ecole Elementaire Publique Lalande (0310921h) E;E;Compensationdécharge dedirecteur;Sans spécialité;0;1;239 avenue de Fronton 31200 TOULOUSE, 31200 Toulouse;43.64784089450695;1.4320097541085763;Ecole
1256;Toulouse;Ecole Elementaire Publique Cuvier (0310970l);E;Compensationdécharge dedirecteur;Sans spécialité;0;1;135 route d'Albi 31200 TOULOUSE, 31200 Toulouse;43.638406865562665;1.4620200995206662;Ecole
175096;Toulouse;Ecole Primaire Publique Grand Selve(0310975s);E;Compensationdécharge dedirecteur;Sans spécialité;0;1;23 rue Froideterre 31200 TOULOUSE, 31200 Toulouse;43.648922356176655;1.4494345748045336;Ecole
168867;Toulouse;Ecole Elementaire Application Maurice Becanne(0311025w);E;Compensationdécharge dedirecteur;Sans spécialité;0;1;85 avenue de Muret 31300 TOULOUSE, 31300 Toulouse;43.582963080073455;1.4259495190795535;Ecole
1257;Toulouse;Ecole Elementaire Publique Lapujade(0311089r);E;Compensationdécharge dedirecteur;Sans spécialité;0;1;26 route d'Albi 31200 TOULOUSE, 31200 Toulouse;43.62836973597338;1.460880588911495;Ecole
1258;Toulouse;Ecole Elementaire Publique Paul Dottin(0311305a);E;Compensationdécharge dedirecteur;Sans spécialité;0;1;10 rue du Recteur Dottin 31100 TOULOUSE, 31100 Toulouse;43.56058921643322;1.3996696177473373;Ecole
1259;Toulouse;Ecole Primaire Publique Sept-Deniers(0312080t);E;Compensationdécharge dedirecteur;Sans spécialité;0;1;110 route de Blagnac 31200 TOULOUSE, 31200 Toulouse;43.61665646112352;1.4088003602598822;Ecole
1260;Toulouse;Ecole Primaire Publique Amidonniers(0312088b);E;Compensationdécharge dedirecteur;Sans spécialité;0;1;123 allée de Brienne 31000 TOULOUSE, 31000 Toulouse;43.60929369282505;1.421370231531258;Ecole
1261;Toulouse;Ecole Elementaire Publique Jules Ferry(0312110a);E;Compensationdécharge dedirecteur;Sans spécialité;0;1;109 avenue de Fronton 31200 TOULOUSE, 31200 Toulouse;43.63285479322702;1.4325805922248338;Ecole
158914;Toulouse;Ecole Elementaire Publique Alfred De Musset(0312151v);E;Compensationdécharge dedirecteur;Sans spécialité;0;1;5 rue du Général Hoche 31200 TOULOUSE, 31200 Toulouse;43.6225554847077;1.430260514208045;Ecole
188321;Toulouse;Ecole Primaire Publique Littre (0312155z);E;Compensationdécharge dedirecteur;Sans spécialité;1;0;2 place Paul Bertier 31300 TOULOUSE, 31300 Toulouse;43.60805136348245;1.3777798500180434;Ecole
1262;Toulouse;Ecole Elementaire Publique Soupetard(0312174v);E;Compensationdécharge dedirecteur;Sans spécialité;0;1;37 rue de la Solidarité 31500 TOULOUSE, 31500 Toulouse;43.6067630085609;1.4781994742065838;Ecole
1263;Toulouse;Ecole Elementaire Publique Ernest Renan(0312178z);E;Compensationdécharge dedirecteur;Sans spécialité;0;1;7 chemin d'Audibert 31200 TOULOUSE, 31200 Toulouse;43.63639998478397;1.4417994307249484;Ecole
1264;Toulouse;Ecole Elementaire Publique Victor Hugo(0312196u);E;Compensationdécharge dedirecteur;Sans spécialité;0;1;3 impasse Théodore Richard 31100 TOULOUSE, 31100 Toulouse;43.56601393235032;1.402539424081433;Ecole
1265;Toulouse;Ecole Elementaire Publique Buffon (0312227c);E;Compensationdécharge dedirecteur;Sans spécialité;0;1;6 impasse des Glières 31100 TOULOUSE, 31100 Toulouse;43.564719924499784;1.4118697154839732;Ecole
1266;Toulouse;Ecole Elementaire Publique Etienne Billieres(0312272b);E;Compensationdécharge dedirecteur;Sans spécialité;0;1;56 rue Jacques Gamelin 31100 TOULOUSE, 31100 Toulouse;43.58795968340923;1.42162032011623;Ecole
1267;Toulouse;Ecole Elementaire Publique Jules Julien(0312273c);E;Compensationdécharge dedirecteur;Sans spécialité;0;1;11 avenue des écoles Jules Julien 31400 TOULOUSE, 31400 Toulouse;43.57402341440476;1.45377730861442;Ecole
1268;Toulouse;Ecole Elementaire Publique Michoun (0312276f) E;E;Compensationdécharge dedirecteur;Sans spécialité;0;1;49 chemin Michoun 31500 TOULOUSE, 31500 Toulouse;43.62678867341459;1.467770471575621;Ecole
175099;Toulouse;Ecole Elementaire Publique Lakanal (0312292y) E;E;Compensationdécharge dedirecteur;Sans spécialité;0;1;17 place de la Daurade 31000 TOULOUSE, 31000 Toulouse;43.60255367485231;1.439100045120136;Ecole
173543;Toulouse;Ecole Elementaire Publique Simone Veil(0312323g);E;Compensationdécharge dedirecteur;Sans spécialité;0;1;5 chemin Cambert 31100 TOULOUSE, 31100 Toulouse;43.56840659270936;1.4031956422090626;Ecole
1270;Toulouse;Ecole Elementaire Publique Georges Bastide(0312334u);E;Compensationdécharge dedirecteur;Sans spécialité;0;1;8 rue du Recteur Dottin 31100 TOULOUSE, 31100 Toulouse;43.56014502289212;1.3982910578442522;Ecole
1271;Toulouse;Ecole Elementaire Publique Clement Falcucci(0312347h);E;Compensationdécharge dedirecteur;Sans spécialité;0;1;5 impasse Bachaga Boualam 31100 TOULOUSE, 31100 Toulouse;43.579352777790845;1.4089197033648213;Ecole
1272;Toulouse;Ecole Elementaire Publique Paul Bert(0312402t);E;Compensationdécharge dedirecteur;Sans spécialité;0;1;4 chemin de Liffard 31100 TOULOUSE, 31100 Toulouse;43.5596516159286;1.3782699446492854;Ecole
1273;Toulouse;Ecole Elementaire Publique Sylvain Dauriac(0312411c);E;Compensationdécharge dedirecteur;Sans spécialité;0;1;41 rue Paul Lambert BP 28 31100 TOULOUSE, 31100 Toulouse;43.57795840194438;1.41400020832733;Ecole
1274;Toulouse;Ecole Elementaire Publique Marie Et PierreCurie (0312427v);E;Compensationdécharge dedirecteur;Sans spécialité;0;1;3 rue Baptiste Marcet 31200 TOULOUSE, 31200 Toulouse;43.62110411611458;1.443229540153597;Ecole
1275;Toulouse;Ecole Elementaire Publique Papus (0312542v);E;Compensationdécharge dedirecteur;Sans spécialité;0;1;46 allée de Guyenne 31100 TOULOUSE, 31100 Toulouse;43.57544742821883;1.4128800453432464;Ecole
188351;Toulouse;Ecole Elementaire Publique Fleurance(0312680v);E;Compensationdécharge dedirecteur;Sans spécialité;1;0;4 rue Théroigne de Méricourt 31000 TOULOUSE, 31000 Toulouse;43.59890548285958;1.3699285672794668;Ecole
141934;Toulouse;Ecole Primaire Publique Olympe De Gouges(0312722r);E;Compensationdécharge dedirecteur;Sans spécialité;0;1;12 rue Virginia Woolf 31200 TOULOUSE, 31200 Toulouse;43.654516093000474;1.4396497623937492;Ecole
1276;Toulouse;Ecole Primaire Publique Ponts Jumeaux(0312852g);E;Compensationdécharge dedirecteur;Sans spécialité;0;1;1 rue Henri Docquiert 31200 TOULOUSE, 31200 Toulouse;43.6147882497205;1.421890375737284;Ecole
1277;Toulouse;Ecole Primaire Publique Guilhermy (0312870b);E;Compensationdécharge dedirecteur;Sans spécialité;0;1;7 rue de las Brugues 31100 TOULOUSE, 31100 Toulouse;43.56728428376914;1.372159383262392;Ecole
141939;Toulouse;Ecole Primaire Niboul (0312871c);E;Compensationdécharge dedirecteur;Sans spécialité;0;1;9 rue Arria Ly 31200 TOULOUSE, 31200 Toulouse;43.6400257262731;1.4500320483205769;Ecole
168856;Toulouse;Ecole Elementaire Publique Jules GeraudSaliege (0312892a);E;Compensationdécharge dedirecteur;Sans spécialité;0;1;3 rue Lise MEITNER 31200 TOULOUSE, 31200 Toulouse;43.65322561521429;1.4345211762942287;Ecole
1278;Toulouse;Ecole Primaire Genevieve De Gaulle Anthonioz(0312921g);E;Compensationdécharge dedirecteur;Sans spécialité;0;1;7 rue Marie de Gournay 31300 TOULOUSE, 31300 Toulouse;43.600507097619634;1.4061176505136046;Ecole
141944;Toulouse;Ecole Elementaire Publique Jean Zay(0312922h);E;Compensationdécharge dedirecteur;Sans spécialité;0;1;23 rue Durand 31200 TOULOUSE, 31200 Toulouse;43.64381223620703;1.447282579035743;Ecole
188359;Toulouse;Ecole Elementaire Publique Borderouge(0312942e);E;Compensationdécharge dedirecteur;Sans spécialité;1;0;6 rue Antoine Pastre 31000 TOULOUSE, 31000 Toulouse;43.641378729924384;1.4546723209860122;Ecole
168857;Toulouse;Ecole Primaire Georges Mailhos (0312975r);E;Compensationdécharge dedirecteur;Sans spécialité;0;1;Quartier malepère 31400 TOULOUSE, 31400 Toulouse;43.56287570701777;1.504629229891012;Ecole
141941;Toulouse;Ecole Primaire Josephine Baker (0312977t);E;Compensationdécharge dedirecteur;Sans spécialité;0;1;17 chemin Dortis 31200 TOULOUSE, 31200 Toulouse;43.6669884007469;1.4354197491489133;Ecole
175101;Toulouse;Ecole Primaire Canto Laouzetto (0313018m);E;Compensationdécharge dedirecteur;Sans spécialité;0;1;111 chemin de Canto Laouzeto 31100 TOULOUSE, 31100 Toulouse;43.55987045373459;1.3881909166897084;Ecole
2554;Toulouse;Ecole Elementaire Application Ricardie 3(0310160f);E;Enseignant classeélémentaire;Sans spécialité;0;7;54 avenue de l'URSS 31400 TOULOUSE, 31400 Toulouse;43.58128091546669;1.4498370497215034;Ecole
1604;Toulouse;Ecole Primaire Publique Calas - Dupont(0310161g);E;Enseignant classeélémentaire;Sans spécialité;1;5;101 grande rue Saint-Michel 31400 TOULOUSE, 31400 Toulouse;43.589142807932035;1.4455005646511274;Ecole
2555;Toulouse;Ecole Primaire Application Benezet (0310162h) E;E;Enseignant classeélémentaire;Sans spécialité;0;1;37 rue Bénézet 31300 TOULOUSE, 31300 Toulouse;43.588239444342975;1.4287502112161503;Ecole
1605;Toulouse;Ecole Primaire Falguiere (0310916c);E;Enseignant classeélémentaire;Sans spécialité;0;7;2 rue d'Artagnan 31000 TOULOUSE, 31000 Toulouse;43.60744514784374;1.430000212518502;Ecole
1606;Toulouse;Ecole Elementaire Publique Claude Nougaro(0310917d);E;Enseignant classeélémentaire;Sans spécialité;0;7;59 rue du Général Bourbaki 31200 TOULOUSE, 31200 Toulouse;43.620372143705424;1.434249679643655;Ecole
1607;Toulouse;Ecole Elementaire Publique Lalande (0310921h) E;E;Enseignant classeélémentaire;Sans spécialité;3;14;239 avenue de Fronton 31200 TOULOUSE, 31200 Toulouse;43.64784089450695;1.4320097541085763;Ecole
1608;Toulouse;Ecole Elementaire Publique Jean Chaubet(0310928r);E;Enseignant classeélémentaire;Sans spécialité;0;6;112 avenue Camille Pujol 31500 TOULOUSE, 31500 Toulouse;43.60052500996814;1.467659476342685;Ecole
1609;Toulouse;Ecole Elementaire Publique Bonhoure(0310929s);E;Enseignant classeélémentaire;Sans spécialité;0;3;20 bis place Pinel 31500 TOULOUSE, 31500 Toulouse;43.60254602492596;1.4662395610881223;Ecole
1610;Toulouse;Ecole Elementaire Publique Marengo-Periole(0310934x);E;Enseignant classeélémentaire;Sans spécialité;2;4;98 rue de Périole 31500 TOULOUSE, 31500 Toulouse;43.61756060528841;1.4605103902723255;Ecole
1611;Toulouse;Ecole Primaire Sermet (0310950p);E;Enseignant classeélémentaire;Sans spécialité;0;3;71 rue du Taur 31000 TOULOUSE, 31000 Toulouse;43.607123791921296;1.4418106119963854;Ecole
1612;Toulouse;Ecole Elementaire Publique Nord (0310952s);E;Enseignant classeélémentaire;Sans spécialité;0;1;13 boulevard d'Arcole 31000 TOULOUSE, 31000 Toulouse;43.61086096474927;1.441099725269297;Ecole
1613;Toulouse;Ecole Elementaire Publique Leo Lagrange(0310960a);E;Enseignant classeélémentaire;Sans spécialité;2;6;39 allée Henri Sellier 31400 TOULOUSE, 31400 Toulouse;43.5768676810672;1.438529751290051;Ecole
1614;Toulouse;Ecole Elementaire Publique Cuvier (0310970l);E;Enseignant classeélémentaire;Sans spécialité;2;10;135 route d'Albi 31200 TOULOUSE, 31200 Toulouse;43.638406865562665;1.4620200995206662;Ecole
1615;Toulouse;Ecole Primaire Publique Grand Selve(0310975s);E;Enseignant classeélémentaire;Sans spécialité;0;7;23 rue Froideterre 31200 TOULOUSE, 31200 Toulouse;43.648922356176655;1.4494345748045336;Ecole
1616;Toulouse;Ecole Elementaire Publique Georges Hyon(0310987e);E;Enseignant classeélémentaire;Sans spécialité;1;3;1 impasse Bachaga Boualam 31100 TOULOUSE, 31100 Toulouse;43.57907804429154;1.410069897880824;Ecole
1617;Toulouse;Ecole Elementaire Publique Ronsard (0310988f) E;E;Enseignant classeélémentaire;Sans spécialité;0;7;7 bis rue Vestrepain 31100 TOULOUSE, 31100 Toulouse;43.58442389638942;1.407199411581614;Ecole
1618;Toulouse;Ecole Elementaire Publique Bonnefoy(0310992k);E;Enseignant classeélémentaire;Sans spécialité;0;6;18 rue Faubourg Bonnefoy 31500 TOULOUSE, 31500 Toulouse;43.61663488915373;1.454510236106314;Ecole
1619;Toulouse;Ecole Elementaire Publique Bayard-Matabiau(0310993l);E;Enseignant classeélémentaire;Sans spécialité;1;5;60 rue Matabiau 31000 TOULOUSE, 31000 Toulouse;43.612017766029496;1.4490498043775477;Ecole
1620;Toulouse;Ecole Elementaire Publique Sauzelong(0311006a);E;Enseignant classeélémentaire;Sans spécialité;0;4;92 avenue Albert Bedouce 31400 TOULOUSE, 31400 Toulouse;43.58054337420966;1.4623995125939244;Ecole
1621;Toulouse;Ecole Primaire Publique Alexandre Fourtanier(0311008c);E;Enseignant classeélémentaire;Sans spécialité;0;3;51 rue du Rempart Saint-Etienne 31000 TOULOUSE, 31000 Toulouse;43.6028327401688;1.4499804506558804;Ecole
1622;Toulouse;Ecole Primaire Armand Leygue (0311010e);E;Enseignant classeélémentaire;Sans spécialité;0;4;11 chemin du coin de La Moure 31500 TOULOUSE, 31500 Toulouse;43.5968093684137;1.4649949024101128;Ecole
1623;Toulouse;Ecole Elementaire Publique Fontaine Bayonne(0311015k);E;Enseignant classeélémentaire;Sans spécialité;0;3;21 rue Albus 31300 TOULOUSE, 31300 Toulouse;43.60074520144751;1.4164303200900012;Ecole
1624;Toulouse;Ecole Elementaire Publique Marcel Pagnol(0311016l);E;Enseignant classeélémentaire;Sans spécialité;0;5;7 rue Ernest Dufer 31300 TOULOUSE, 31300 Toulouse;43.5967959065167;1.401169791648437;Ecole
1625;Toulouse;Ecole Elementaire Publique Lespinasse(0311021s);E;Enseignant classeélémentaire;Sans spécialité;0;6;3 rue du Chairedon 31300 TOULOUSE, 31300 Toulouse;43.59739404460308;1.4346401803799333;Ecole
1626;Toulouse;Ecole Primaire Publique Les Oustalous(0311024v);E;Enseignant classeélémentaire;Sans spécialité;0;4;65 route d'Espagne 31100 TOULOUSE, 31100 Toulouse;43.574761055890356;1.4242694616074525;Ecole
2556;Toulouse;Ecole Elementaire Application Maurice Becanne(0311025w);E;Enseignant classeélémentaire;Sans spécialité;0;2;85 avenue de Muret 31300 TOULOUSE, 31300 Toulouse;43.582963080073455;1.4259495190795535;Ecole
1627;Toulouse;Ecole Elementaire Publique Lapujade(0311089r);E;Enseignant classeélémentaire;Sans spécialité;0;12;26 route d'Albi 31200 TOULOUSE, 31200 Toulouse;43.62836973597338;1.460880588911495;Ecole
1628;Toulouse;Ecole Elementaire Publique Paul Dottin(0311305a);E;Enseignant classeélémentaire;Sans spécialité;0;13;10 rue du Recteur Dottin 31100 TOULOUSE, 31100 Toulouse;43.56058921643322;1.3996696177473373;Ecole
1629;Toulouse;Ecole Elementaire Publique Monge (0311569m) E;E;Enseignant classeélémentaire;Sans spécialité;0;4;12 rue Soult 31500 TOULOUSE, 31500 Toulouse;43.60896001218364;1.4579198247109437;Ecole
1630;Toulouse;Ecole Elementaire Publique Les Gais Pinsons(0311601x);E;Enseignant classeélémentaire;Sans spécialité;0;6;6 rue des Gais Pinsons 31300 TOULOUSE, 31300 Toulouse;43.603718322147174;1.4091406113612275;Ecole
1631;Toulouse;Ecole Elementaire Publique Daniel Faucher(0311604a);E;Enseignant classeélémentaire;Sans spécialité;0;5;5 cheminement André Messager 31100 TOULOUSE, 31100 Toulouse;43.57312182848635;1.4056798829482506;Ecole
1632;Toulouse;Ecole Elementaire Publique Le Pastel(0311641r);E;Enseignant classeélémentaire;Sans spécialité;0;3;2 chemin d'Escallès 31400 TOULOUSE, 31400 Toulouse;43.54532713138142;1.45353049682074;Ecole
1633;Toulouse;Ecole Elementaire Publique Francoise Heritier(0311645v);E;Enseignant classeélémentaire;Sans spécialité;0;5;3 cheminement André Messager 31100 TOULOUSE, 31100 Toulouse;43.57264613919868;1.4059505487462778;Ecole
1634;Toulouse;Ecole Elementaire Publique Didier Daurat(0311693x);E;Enseignant classeélémentaire;Sans spécialité;2;4;19 rue Jean Gilles 31100 TOULOUSE, 31100 Toulouse;43.57338221341522;1.402210592237039;Ecole
1635;Toulouse;Ecole Elementaire Publique La Terrasse(0311745d);E;Enseignant classeélémentaire;Sans spécialité;0;5;4 impasse Trutat 31500 TOULOUSE, 31500 Toulouse;43.5837667349571;1.4853803995745845;Ecole
1636;Toulouse;Ecole Primaire Publique Ada Lovelace(0311782u);E;Enseignant classeélémentaire;Sans spécialité;1;4;3 rue du professeur Jacques ARLET 31300 TOULOUSE, 31300 Toulouse;43.597125991611016;1.4151594229766762;Ecole
1637;Toulouse;Ecole Elementaire Publique Fabre (0311880a);E;Enseignant classeélémentaire;Sans spécialité;0;7;9 rue Saint-Rémésy 31000 TOULOUSE, 31000 Toulouse;43.59585881188597;1.4433498081655625;Ecole
1638;Toulouse;Ecole Elementaire Publique Montaudran(0311923x);E;Enseignant classeélémentaire;Sans spécialité;0;6;Impasse Gaston Génin 31400 TOULOUSE, 31400 Toulouse;43.5741697884381;1.484460220617808;Ecole
1639;Toulouse;Ecole Elementaire Publique Leonce Bourliaguet(0311961n);E;Enseignant classeélémentaire;Sans spécialité;0;6;73 rue Aristide Maillol 31100 TOULOUSE, 31100 Toulouse;43.577519912284814;1.3959097925190411;Ecole
1640;Toulouse;Ecole Elementaire Publique Les Vergers(0312028l);E;Enseignant classeélémentaire;Sans spécialité;0;5;2 impasse des Vergers 31100 TOULOUSE, 31100 Toulouse;43.580839681341445;1.3987694942690791;Ecole
1641;Toulouse;Ecole Elementaire Publique Michelet(0312077p);E;Enseignant classeélémentaire;Sans spécialité;0;5;5 boulevard Michelet 31000 TOULOUSE, 31000 Toulouse;43.60301697949828;1.4558405341117195;Ecole
1642;Toulouse;Ecole Elementaire Publique Moliere (0312078r);E;Enseignant classeélémentaire;Sans spécialité;1;3;34 rue Sainte Lucie 31300 TOULOUSE, 31300 Toulouse;43.59339282820351;1.4310780717936866;Ecole
1644;Toulouse;Ecole Primaire Publique Sept-Deniers(0312080t);E;Enseignant classeélémentaire;Sans spécialité;0;11;110 route de Blagnac 31200 TOULOUSE, 31200 Toulouse;43.61665646112352;1.4088003602598822;Ecole
1645;Toulouse;Ecole Primaire Publique Amidonniers(0312088b);E;Enseignant classeélémentaire;Sans spécialité;1;6;123 allée de Brienne 31000 TOULOUSE, 31000 Toulouse;43.60929369282505;1.421370231531258;Ecole
1646;Toulouse;Ecole Elementaire Publique Elsa Triolet(0312107x);E;Enseignant classeélémentaire;Sans spécialité;0;6;4 bis rue Emile Pelletier 31100 TOULOUSE, 31100 Toulouse;43.572082903519906;1.39484006525137;Ecole
1647;Toulouse;Ecole Elementaire Publique Viollet-Le-Duc(0312108y);E;Enseignant classeélémentaire;Sans spécialité;0;4;23 rue Viollet Le Duc 31100 TOULOUSE, 31100 Toulouse;43.58135021339709;1.392269630019443;Ecole
1648;Toulouse;Ecole Elementaire Publique Jules Ferry(0312110a);E;Enseignant classeélémentaire;Sans spécialité;0;14;109 avenue de Fronton 31200 TOULOUSE, 31200 Toulouse;43.63285479322702;1.4325805922248338;Ecole
1649;Toulouse;Ecole Elementaire Publique Chateau D'ancely(0312111b);E;Enseignant classeélémentaire;Sans spécialité;0;9;4 allée du Vivarais 31300 TOULOUSE, 31300 Toulouse;43.61853482261093;1.3986400521216718;Ecole
1650;Toulouse;Ecole Elementaire Publique Ferdinand DeLesseps (0312143l);E;Enseignant classeélémentaire;Sans spécialité;0;7;31 chemin des Pradettes 31100 TOULOUSE, 31100 Toulouse;43.578996825343935;1.3852299951649816;Ecole
1651;Toulouse;Ecole Elementaire Publique Alfred De Musset(0312151v);E;Enseignant classeélémentaire;Sans spécialité;1;9;5 rue du Général Hoche 31200 TOULOUSE, 31200 Toulouse;43.6225554847077;1.430260514208045;Ecole
1652;Toulouse;Ecole Elementaire Publique Anatole France(0312152w);E;Enseignant classeélémentaire;Sans spécialité;0;7;21 boulevard la Méditerranée 31400 TOULOUSE, 31400 Toulouse;43.58524264137566;1.4623899853580247;Ecole
1653;Toulouse;Ecole Elementaire Publique Henri Guillaumet(0312153x);E;Enseignant classeélémentaire;Sans spécialité;1;6;30 chemin de Bitet 31400 TOULOUSE, 31400 Toulouse;43.5767042577117;1.4886798794377891;Ecole
1654;Toulouse;Ecole Elementaire Publique Jean Mace(0312154y);E;Enseignant classeélémentaire;Sans spécialité;0;8;3 chemin de Duroux 31500 TOULOUSE, 31500 Toulouse;43.59576301091337;1.4786397897199677;Ecole
1655;Toulouse;Ecole Primaire Publique Littre (0312155z);E;Enseignant classeélémentaire;Sans spécialité;0;7;2 place Paul Bertier 31300 TOULOUSE, 31300 Toulouse;43.60805136348245;1.3777798500180434;Ecole
1656;Toulouse;Ecole Elementaire Publique La Juncasse(0312156a);E;Enseignant classeélémentaire;Sans spécialité;0;8;133 rue Louis Plana 31500 TOULOUSE, 31500 Toulouse;43.61735205961893;1.471109394069272;Ecole
1657;Toulouse;Ecole Elementaire Publique Jolimont(0312173u);E;Enseignant classeélémentaire;Sans spécialité;0;7;14 avenue Henri Guillaumet 31500 TOULOUSE, 31500 Toulouse;43.61351565802887;1.467790570963855;Ecole
1658;Toulouse;Ecole Elementaire Publique Soupetard(0312174v);E;Enseignant classeélémentaire;Sans spécialité;0;17;37 rue de la Solidarité 31500 TOULOUSE, 31500 Toulouse;43.6067630085609;1.4781994742065838;Ecole
1659;Toulouse;Ecole Elementaire Publique Courrege(0312176x);E;Enseignant classeélémentaire;Sans spécialité;0;8;165 avenue Saint-Exupéry 31400 TOULOUSE, 31400 Toulouse;43.58307969068796;1.4762797096817522;Ecole
1660;Toulouse;Ecole Elementaire Publique Rangueil(0312177y);E;Enseignant classeélémentaire;Sans spécialité;0;5;16 rue Claude Forbin 31400 TOULOUSE, 31400 Toulouse;43.575192072072284;1.4640901028061053;Ecole
1661;Toulouse;Ecole Elementaire Publique Ernest Renan(0312178z);E;Enseignant classeélémentaire;Sans spécialité;0;12;7 chemin d'Audibert 31200 TOULOUSE, 31200 Toulouse;43.63639998478397;1.4417994307249484;Ecole
1662;Toulouse;Ecole Elementaire Publique Victor Hugo(0312196u);E;Enseignant classeélémentaire;Sans spécialité;0;14;3 impasse Théodore Richard 31100 TOULOUSE, 31100 Toulouse;43.56601393235032;1.402539424081433;Ecole
1663;Toulouse;Ecole Elementaire Publique Patte D'oie(0312197v);E;Enseignant classeélémentaire;Sans spécialité;0;10;46 rue du Tchad 31300 TOULOUSE, 31300 Toulouse;43.595478151809225;1.4257399415604461;Ecole
1664;Toulouse;Ecole Elementaire Publique Calvinhac(0312226b);E;Enseignant classeélémentaire;Sans spécialité;0;4;8 bis rue Jacques Labatut 31000 TOULOUSE, 31000 Toulouse;43.597759252767545;1.4548700464233564;Ecole
1665;Toulouse;Ecole Elementaire Publique Buffon (0312227c);E;Enseignant classeélémentaire;Sans spécialité;0;15;6 impasse des Glières 31100 TOULOUSE, 31100 Toulouse;43.564719924499784;1.4118697154839732;Ecole
1666;Toulouse;Ecole Elementaire Publique Etienne Billieres(0312272b);E;Enseignant classeélémentaire;Sans spécialité;1;10;56 rue Jacques Gamelin 31100 TOULOUSE, 31100 Toulouse;43.58795968340923;1.42162032011623;Ecole
1667;Toulouse;Ecole Elementaire Publique Jules Julien(0312273c);E;Enseignant classeélémentaire;Sans spécialité;0;12;11 avenue des écoles Jules Julien 31400 TOULOUSE, 31400 Toulouse;43.57402341440476;1.45377730861442;Ecole
1668;Toulouse;Ecole Elementaire Publique Michoun (0312276f) E;E;Enseignant classeélémentaire;Sans spécialité;1;11;49 chemin Michoun 31500 TOULOUSE, 31500 Toulouse;43.62678867341459;1.467770471575621;Ecole
1669;Toulouse;Ecole Elementaire Publique Lakanal (0312292y) E;E;Enseignant classeélémentaire;Sans spécialité;0;7;17 place de la Daurade 31000 TOULOUSE, 31000 Toulouse;43.60255367485231;1.439100045120136;Ecole
1670;Toulouse;Ecole Elementaire Publique Lardenne(0312293z);E;Enseignant classeélémentaire;Sans spécialité;1;7;20 chemin Rocamadour 31100 TOULOUSE, 31100 Toulouse;43.588724401948205;1.37810950987054;Ecole
1671;Toulouse;Ecole Elementaire Publique Jean Jaures(0312294a);E;Enseignant classeélémentaire;Sans spécialité;0;10;21 avenue Frizac 31400 TOULOUSE, 31400 Toulouse;43.588780146001376;1.45136038181894;Ecole
1672;Toulouse;Ecole Elementaire Publique Gaston Dupouy(0312320d);E;Enseignant classeélémentaire;Sans spécialité;0;4;8 rue du Professeur Gaston Dupouy 31100 TOULOUSE, 31100 Toulouse;43.58097489955699;1.3808180107519679;Ecole
1673;Toulouse;Ecole Elementaire Publique Simone Veil(0312323g);E;Enseignant classeélémentaire;Sans spécialité;0;10;5 chemin Cambert 31100 TOULOUSE, 31100 Toulouse;43.56840659270936;1.4031956422090626;Ecole
1674;Toulouse;Ecole Elementaire Publique Maurice Jacquier(0312324h);E;Enseignant classeélémentaire;Sans spécialité;0;7;7 rue du Poitou 31100 TOULOUSE, 31100 Toulouse;43.57524042077213;1.4184299293405807;Ecole
1675;Toulouse;Ecole Elementaire Publique Georges Bastide(0312334u);E;Enseignant classeélémentaire;Sans spécialité;0;11;8 rue du Recteur Dottin 31100 TOULOUSE, 31100 Toulouse;43.56014502289212;1.3982910578442522;Ecole
1676;Toulouse;Ecole Elementaire Publique Clement Falcucci(0312347h);E;Enseignant classeélémentaire;Sans spécialité;0;9;5 impasse Bachaga Boualam 31100 TOULOUSE, 31100 Toulouse;43.579352777790845;1.4089197033648213;Ecole
1677;Toulouse;Ecole Elementaire Publique Paul Bert(0312402t);E;Enseignant classeélémentaire;Sans spécialité;0;11;4 chemin de Liffard 31100 TOULOUSE, 31100 Toulouse;43.5596516159286;1.3782699446492854;Ecole
1678;Toulouse;Ecole Elementaire Publique Sylvain Dauriac(0312411c);E;Enseignant classeélémentaire;Sans spécialité;2;10;41 rue Paul Lambert BP 28 31100 TOULOUSE, 31100 Toulouse;43.57795840194438;1.41400020832733;Ecole
1679;Toulouse;Ecole Elementaire Publique Marie Et PierreCurie (0312427v);E;Enseignant classeélémentaire;Sans spécialité;0;17;3 rue Baptiste Marcet 31200 TOULOUSE, 31200 Toulouse;43.62110411611458;1.443229540153597;Ecole
1680;Toulouse;Ecole Elementaire Publique Papus (0312542v);E;Enseignant classeélémentaire;Sans spécialité;0;16;46 allée de Guyenne 31100 TOULOUSE, 31100 Toulouse;43.57544742821883;1.4128800453432464;Ecole
1681;Toulouse;Ecole Elementaire Publique Chateau De L'hers(0312598f);E;Enseignant classeélémentaire;Sans spécialité;0;4;8 rue Claudius Rougenet 31500 TOULOUSE, 31500 Toulouse;43.60054742377937;1.4848495033643578;Ecole
1682;Toulouse;Ecole Elementaire Publique La Maourine(0312673m);E;Enseignant classeélémentaire;Sans spécialité;0;6;13 avenue Maurice Bourges Maunoury 31200 TOULOUSE, 31200 Toulouse;43.62999989830424;1.4491916501071864;Ecole
1683;Toulouse;Ecole Elementaire Publique Les Tibaous(0312679u);E;Enseignant classeélémentaire;Sans spécialité;0;9;7 rue Albert Carovis 31100 TOULOUSE, 31100 Toulouse;43.550641703332715;1.385039979781423;Ecole
1684;Toulouse;Ecole Elementaire Publique Fleurance(0312680v);E;Enseignant classeélémentaire;Sans spécialité;0;10;4 rue Théroigne de Méricourt 31000 TOULOUSE, 31000 Toulouse;43.59890548285958;1.3699285672794668;Ecole
1685;Toulouse;Ecole Primaire Publique Olympe De Gouges(0312722r);E;Enseignant classeélémentaire;Sans spécialité;0;7;12 rue Virginia Woolf 31200 TOULOUSE, 31200 Toulouse;43.654516093000474;1.4396497623937492;Ecole
1686;Toulouse;Ecole Elementaire Publique Lucie Aubrac(0312750w);E;Enseignant classeélémentaire;Sans spécialité;2;5;38 avenue de Fronton 31200 TOULOUSE, 31200 Toulouse;43.62961840637077;1.4348199165828988;Ecole
1687;Toulouse;Ecole Primaire Publique Jean-Pierre Vernant(0312769s);E;Enseignant classeélémentaire;Sans spécialité;0;3;1 rue René Goscinny 31400 TOULOUSE, 31400 Toulouse;43.55028201674248;1.457769543098067;Ecole
1688;Toulouse;Ecole Primaire Publique Ponts Jumeaux(0312852g);E;Enseignant classeélémentaire;Sans spécialité;0;8;1 rue Henri Docquiert 31200 TOULOUSE, 31200 Toulouse;43.6147882497205;1.421890375737284;Ecole
1689;Toulouse;Ecole Primaire Publique Guilhermy (0312870b);E;Enseignant classeélémentaire;Sans spécialité;0;8;7 rue de las Brugues 31100 TOULOUSE, 31100 Toulouse;43.56728428376914;1.372159383262392;Ecole
1690;Toulouse;Ecole Primaire Niboul (0312871c);E;Enseignant classeélémentaire;Sans spécialité;0;7;9 rue Arria Ly 31200 TOULOUSE, 31200 Toulouse;43.6400257262731;1.4500320483205769;Ecole
1691;Toulouse;Ecole Elementaire Publique Jules GeraudSaliege (0312892a);E;Enseignant classeélémentaire;Sans spécialité;1;11;3 rue Lise MEITNER 31200 TOULOUSE, 31200 Toulouse;43.65322561521429;1.4345211762942287;Ecole
1692;Toulouse;Ecole Primaire Genevieve De Gaulle Anthonioz(0312921g);E;Enseignant classeélémentaire;Sans spécialité;0;8;7 rue Marie de Gournay 31300 TOULOUSE, 31300 Toulouse;43.600507097619634;1.4061176505136046;Ecole
1693;Toulouse;Ecole Elementaire Publique Jean Zay(0312922h);E;Enseignant classeélémentaire;Sans spécialité;0;11;23 rue Durand 31200 TOULOUSE, 31200 Toulouse;43.64381223620703;1.447282579035743;Ecole
1694;Toulouse;Ecole Elementaire Publique Borderouge(0312942e);E;Enseignant classeélémentaire;Sans spécialité;1;7;6 rue Antoine Pastre 31000 TOULOUSE, 31000 Toulouse;43.641378729924384;1.4546723209860122;Ecole
1695;Toulouse;Ecole Primaire Publique Germaine Tillion(0312943f);E;Enseignant classeélémentaire;Sans spécialité;0;4;2 rue Césaria EVORA 31000 TOULOUSE, 31000 Toulouse;43.584304661071585;1.3917188963576546;Ecole
1696;Toulouse;Ecole Primaire Georges Mailhos (0312975r);E;Enseignant classeélémentaire;Sans spécialité;1;7;Quartier malepère 31400 TOULOUSE, 31400 Toulouse;43.56287570701777;1.504629229891012;Ecole
1697;Toulouse;Ecole Primaire Josephine Baker (0312977t);E;Enseignant classeélémentaire;Sans spécialité;2;7;17 chemin Dortis 31200 TOULOUSE, 31200 Toulouse;43.6669884007469;1.4354197491489133;Ecole
1698;Toulouse;Ecole Primaire Canto Laouzetto (0313018m);E;Enseignant classeélémentaire;Sans spécialité;3;5;111 chemin de Canto Laouzeto 31100 TOULOUSE, 31100 Toulouse;43.55987045373459;1.3881909166897084;Ecole
168859;Toulouse;Ecole Primaire Fenelon (0313046t);E;Enseignant classeélémentaire;Sans spécialité;1;3;34 rue Fénélon 31200 TOULOUSE, 31200 Toulouse;43.64951810287924;1.4531602242534822;Ecole
168860;Toulouse;Ecole Primaire Publique Emilie Du Chatelet(0313131k);E;Enseignant classeélémentaire;Sans spécialité;1;1;1 avenue Maxwell 31100 TOULOUSE, 31100 Toulouse;43.59099986523695;1.3681014903089366;Ecole
188052;Toulouse;Ecole Primaire Publique Marie De Gournay(0313234x);E;Enseignant classeélémentaire;Sans spécialité;1;0;Rue Gertrude Bell 31400 TOULOUSE, 31400 Toulouse;;;Ecole
188059;Toulouse;Ecole Elementaire Publique Marie Marvingt(0313236z);E;Enseignant classeélémentaire;Sans spécialité;0;9;Esplanade Pierre Garrigues 31400 TOULOUSE, 31400 Toulouse;;;Ecole
1849;Toulouse;Ecole Primaire Publique Calas - Dupont(0310161g);E;Enseignant classepréélémentaire;Sans spécialité;0;5;101 grande rue Saint-Michel 31400 TOULOUSE, 31400 Toulouse;43.589142807932035;1.4455005646511274;Ecole
175110;Toulouse;Ecole Primaire Application Benezet (0310162h) E;E;Enseignant classepréélémentaire;Sans spécialité;0;1;37 rue Bénézet 31300 TOULOUSE, 31300 Toulouse;43.588239444342975;1.4287502112161503;Ecole
980;Toulouse;Ecole Maternelle Publique Jean Dieuzaide(0310185h);E;Enseignant classepréélémentaire;Sans spécialité;0;3;14 chemin de la Glacière 31200 TOULOUSE, 31200 Toulouse;43.64505527742913;1.4197497853995928;Ecole
982;Toulouse;Ecole Maternelle Publique Jules Ferry(0310187k);E;Enseignant classepréélémentaire;Sans spécialité;0;7;8 avenue Jules Ferry 31200 TOULOUSE, 31200 Toulouse;43.633143193755714;1.4323595916261356;Ecole
983;Toulouse;Ecole Maternelle Publique Jean Jaures(0310188l);E;Enseignant classepréélémentaire;Sans spécialité;0;5;5 bis rue d'Auriol 31400 TOULOUSE, 31400 Toulouse;43.58853505482809;1.4517805169539733;Ecole
984;Toulouse;Ecole Maternelle Publique Jean Mace(0310189m);E;Enseignant classepréélémentaire;Sans spécialité;0;3;9 chemin de Duroux 31500 TOULOUSE, 31500 Toulouse;43.59517965975304;1.4786899262451;Ecole
985;Toulouse;Ecole Maternelle Publique Jules Julien(0310190n);E;Enseignant classepréélémentaire;Sans spécialité;0;3;4 avenue des Ecoles Jules Julien 31400 TOULOUSE, 31400 Toulouse;43.574482987089354;1.4540100103545859;Ecole
986;Toulouse;Ecole Maternelle Publique Clement Falcucci(0310193s);E;Enseignant classepréélémentaire;Sans spécialité;0;5;9 impasse Bachaga Boualam 31100 TOULOUSE, 31100 Toulouse;43.57954759777744;1.4085194103991454;Ecole
987;Toulouse;Ecole Maternelle Publique Georges Hyon(0310194t);E;Enseignant classepréélémentaire;Sans spécialité;0;4;3 impasse Bachaga Boualam 31100 TOULOUSE, 31100 Toulouse;43.57928600977149;1.4093993841499235;Ecole
988;Toulouse;Ecole Maternelle Publique Chateau De L'hers(0310195u);E;Enseignant classepréélémentaire;Sans spécialité;0;2;8 rue Claudius Rougenet 31500 TOULOUSE, 31500 Toulouse;43.60083612236261;1.4843205372814965;Ecole
989;Toulouse;Ecole Maternelle Publique Courrege (0310196v) E;E;Enseignant classepréélémentaire;Sans spécialité;1;4;165 avenue de Saint Exupéry 31400 TOULOUSE, 31400 Toulouse;43.58284808368171;1.476320521306298;Ecole
990;Toulouse;Ecole Maternelle Publique Fabre (0310197w);E;Enseignant classepréélémentaire;Sans spécialité;1;2;4 rue Saint Jean 31000 TOULOUSE, 31000 Toulouse;43.59687780299015;1.4431797631176806;Ecole
991;Toulouse;Ecole Maternelle Publique Henri Guillaumet(0310198x);E;Enseignant classepréélémentaire;Sans spécialité;0;3;14 chemin de Bitet 31400 TOULOUSE, 31400 Toulouse;43.57722140112628;1.487429668396192;Ecole
992;Toulouse;Ecole Maternelle Publique Jean Chaubet(0310199y);E;Enseignant classepréélémentaire;Sans spécialité;0;3;4 place Victor Basch 31500 TOULOUSE, 31500 Toulouse;43.59998520085184;1.467670177700606;Ecole
993;Toulouse;Ecole Maternelle Publique Leo Lagrange(0310200z);E;Enseignant classepréélémentaire;Sans spécialité;0;5;35 allée Henri Sellier 31400 TOULOUSE, 31400 Toulouse;43.57712867927698;1.4372798539271774;Ecole
995;Toulouse;Ecole Maternelle Publique Rangueil (0310202b);E;Enseignant classepréélémentaire;Sans spécialité;0;2;14 rue Claude Forbin 31400 TOULOUSE, 31400 Toulouse;43.57484518684686;1.4645697441541188;Ecole
1208;Toulouse;Ecole Maternelle D Application Ricardie 1(0310203c);E;Enseignant classepréélémentaire;Sans spécialité;0;1;13 avenue Marcel Langer 31400 TOULOUSE, 31400 Toulouse;43.582717646966636;1.4496794002034374;Ecole
996;Toulouse;Ecole Maternelle Publique Sauzelong(0310204d);E;Enseignant classepréélémentaire;Sans spécialité;0;2;30 rue Jeanne Marvig 31400 TOULOUSE, 31400 Toulouse;43.57901406475601;1.4619304745975041;Ecole
997;Toulouse;Ecole Maternelle Publique Buffon (0310205e);E;Enseignant classepréélémentaire;Sans spécialité;1;9;26 bis rue de Gironis 31100 TOULOUSE, 31100 Toulouse;43.56384658916459;1.412949518943722;Ecole
998;Toulouse;Ecole Maternelle Publique Armand Duportal(0310206f);E;Enseignant classepréélémentaire;Sans spécialité;0;2;26 rue Réclusane 31300 TOULOUSE, 31300 Toulouse;43.59895412708802;1.4318658892176586;Ecole
999;Toulouse;Ecole Maternelle Publique Fontaine Casselardit(0310207g);E;Enseignant classepréélémentaire;Sans spécialité;0;5;6 place Jean Baptiste Baudin 31300 TOULOUSE, 31300 Toulouse;43.60422465617133;1.4092405078879917;Ecole
1000;Toulouse;Ecole Maternelle Publique Etienne Billieres(0310208h);E;Enseignant classepréélémentaire;Sans spécialité;0;9;257 rue Henri Desbals 31100 TOULOUSE, 31100 Toulouse;43.5893337006571;1.4190703945907333;Ecole
1001;Toulouse;Ecole Maternelle Publique Marcel Pagnol(0310209j);E;Enseignant classepréélémentaire;Sans spécialité;0;4;16 rue Réné Crabos 31300 TOULOUSE, 31300 Toulouse;43.59589803911745;1.401800319635185;Ecole
1002;Toulouse;Ecole Maternelle Publique Lamartine(0310210k);E;Enseignant classepréélémentaire;Sans spécialité;0;2;7 rue des Feuillants 31300 TOULOUSE, 31300 Toulouse;43.59594728506944;1.4340394714780502;Ecole
1003;Toulouse;Ecole Maternelle Publique Anatole France(0310211l);E;Enseignant classepréélémentaire;Sans spécialité;0;4;6 avenue de Lespinet 31400 TOULOUSE, 31400 Toulouse;43.58564295421495;1.4627605709822555;Ecole
1005;Toulouse;Ecole Maternelle Publique Jean Monnet(0310215r);E;Enseignant classepréélémentaire;Sans spécialité;1;10;11 chemin de l'Eglise de Lalande 31200 TOULOUSE, 31200 Toulouse;43.64666990053572;1.4316885654325708;Ecole
1006;Toulouse;Ecole Maternelle Publique Matabiau (0310216s) E;E;Enseignant classepréélémentaire;Sans spécialité;0;4;40 rue Matabiau 31000 TOULOUSE, 31000 Toulouse;43.611190036743594;1.4481197167257938;Ecole
1007;Toulouse;Ecole Maternelle Publique Merly (0310217t);E;Enseignant classepréélémentaire;Sans spécialité;0;2;5 rue Merly 31000 TOULOUSE, 31000 Toulouse;43.60928234715667;1.4424096467368466;Ecole
1008;Toulouse;Ecole Maternelle Publique Marie Et Pierre Curie(0310218u);E;Enseignant classepréélémentaire;Sans spécialité;1;4;59 chemin Linières 31200 TOULOUSE, 31200 Toulouse;43.620724276049636;1.443979404188148;Ecole
1009;Toulouse;Ecole Maternelle Publique Negreneys(0310219v);E;Enseignant classepréélémentaire;Sans spécialité;0;5;15 rue des Anges 31200 TOULOUSE, 31200 Toulouse;43.62145524135285;1.4386599818591366;Ecole
1010;Toulouse;Ecole Maternelle Publique Petit Gragnague(0310220w);E;Enseignant classepréélémentaire;Sans spécialité;0;2;9 rue des Sports 31200 TOULOUSE, 31200 Toulouse;43.61239148229109;1.4152603705622895;Ecole
1011;Toulouse;Ecole Maternelle Publique Alfred De Musset(0310221x);E;Enseignant classepréélémentaire;Sans spécialité;0;5;5 rue du Général Hoche 31200 TOULOUSE, 31200 Toulouse;43.622652973477386;1.4307793937154019;Ecole
1012;Toulouse;Ecole Maternelle Publique Bonnefoy (0310225b) E;E;Enseignant classepréélémentaire;Sans spécialité;0;3;8 rue du Faubourg Bonnefoy 31500 TOULOUSE, 31500 Toulouse;43.61646075964713;1.4542894862102378;Ecole
1013;Toulouse;Ecole Maternelle Publique Cuvier (0310226c);E;Enseignant classepréélémentaire;Sans spécialité;0;7;2 rue Serge Gainsbourg 31200 TOULOUSE, 31200 Toulouse;43.63716864460474;1.46291946514001;Ecole
1014;Toulouse;Ecole Maternelle Publique Ernest Renan(0310227d);E;Enseignant classepréélémentaire;Sans spécialité;0;8;3 chemin d'Audibert 31200 TOULOUSE, 31200 Toulouse;43.6364919643643;1.4433198168134527;Ecole
1015;Toulouse;Ecole Maternelle Publique Jolimont (0310228e);E;Enseignant classepréélémentaire;Sans spécialité;0;4;16 avenue Henri Guillaumet 31500 TOULOUSE, 31500 Toulouse;43.613468625699845;1.4685399540536495;Ecole
1016;Toulouse;Ecole Maternelle Publique La Juncasse(0310229f);E;Enseignant classepréélémentaire;Sans spécialité;1;3;131 rue Louis Plana 31500 TOULOUSE, 31500 Toulouse;43.61722002777432;1.471319776250805;Ecole
1017;Toulouse;Ecole Maternelle Publique Lakanal (0310230g);E;Enseignant classepréélémentaire;Sans spécialité;0;2;6 rue du Prieuré 31000 TOULOUSE, 31000 Toulouse;43.60168211008662;1.4413899818898142;Ecole
1018;Toulouse;Ecole Maternelle Publique Michelet (0310231h);E;Enseignant classepréélémentaire;Sans spécialité;0;2;4 boulevard Michelet 31000 TOULOUSE, 31000 Toulouse;43.60416107451439;1.45510012486434;Ecole
1019;Toulouse;Ecole Maternelle Publique Marengo-Periole(0310234l);E;Enseignant classepréélémentaire;Sans spécialité;0;4;9 rue du Maréchal Gallieni 31500 TOULOUSE, 31500 Toulouse;43.61698925623638;1.4608998115763314;Ecole
1020;Toulouse;Ecole Maternelle Publique Sarrat (0310235m);E;Enseignant classepréélémentaire;Sans spécialité;1;3;16 place Dupuy 31000 TOULOUSE, 31000 Toulouse;43.5993570595473;1.4550895428201838;Ecole
1021;Toulouse;Ecole Maternelle Publique Soupetard(0310236n);E;Enseignant classepréélémentaire;Sans spécialité;0;9;37 rue de la Solidarité (site Ariane) 31500 TOULOUSE, 31500 Toulouse;43.607348155382645;1.4774420997983246;Ecole
1022;Toulouse;Ecole Maternelle Publique Lardenne (0310237p) E;E;Enseignant classepréélémentaire;Sans spécialité;0;4;8 place Jacques Sauvegrain 31100 TOULOUSE, 31100 Toulouse;43.5892129157061;1.3782195158137964;Ecole
1023;Toulouse;Ecole Maternelle Publique Moliere (0310239s);E;Enseignant classepréélémentaire;Sans spécialité;0;2;32 rue Sainte Lucie 31300 TOULOUSE, 31300 Toulouse;43.59355662395611;1.431639451833336;Ecole
1024;Toulouse;Ecole Maternelle Publique Papus (0310240t);E;Enseignant classepréélémentaire;Sans spécialité;0;2;48 allée de Guyenne 31100 TOULOUSE, 31100 Toulouse;43.57537676272288;1.4137100979809056;Ecole
1025;Toulouse;Ecole Maternelle Publique Patte D'oie(0310241u);E;Enseignant classepréélémentaire;Sans spécialité;0;6;87 rue de Cugnaux 31300 TOULOUSE, 31300 Toulouse;43.594898675469985;1.426180553258851;Ecole
1026;Toulouse;Ecole Maternelle Publique Paul Bert (0310242v) E;E;Enseignant classepréélémentaire;Sans spécialité;0;5;4 chemin de Liffard 31100 TOULOUSE, 31100 Toulouse;43.5596516159286;1.3782699446492854;Ecole
1028;Toulouse;Ecole Maternelle Publique Claude Nougaro(0310245y);E;Enseignant classepréélémentaire;Sans spécialité;0;4;51 avenue des Minimes 31200 TOULOUSE, 31200 Toulouse;43.61931016790815;1.43606000148756;Ecole
188271;Toulouse;Ecole Primaire Falguiere (0310916c);E;Enseignant classepréélémentaire;Sans spécialité;0;4;2 rue d'Artagnan 31000 TOULOUSE, 31000 Toulouse;43.60744514784374;1.430000212518502;Ecole
1850;Toulouse;Ecole Primaire Sermet (0310950p);E;Enseignant classepréélémentaire;Sans spécialité;0;3;71 rue du Taur 31000 TOULOUSE, 31000 Toulouse;43.607123791921296;1.4418106119963854;Ecole
175104;Toulouse;Ecole Primaire Publique Grand Selve(0310975s);E;Enseignant classepréélémentaire;Sans spécialité;0;5;23 rue Froideterre 31200 TOULOUSE, 31200 Toulouse;43.648922356176655;1.4494345748045336;Ecole
1851;Toulouse;Ecole Primaire Publique Alexandre Fourtanier(0311008c);E;Enseignant classepréélémentaire;Sans spécialité;0;3;51 rue du Rempart Saint-Etienne 31000 TOULOUSE, 31000 Toulouse;43.6028327401688;1.4499804506558804;Ecole
1852;Toulouse;Ecole Primaire Armand Leygue (0311010e);E;Enseignant classepréélémentaire;Sans spécialité;1;3;11 chemin du coin de La Moure 31500 TOULOUSE, 31500 Toulouse;43.5968093684137;1.4649949024101128;Ecole
168861;Toulouse;Ecole Primaire Publique Les Oustalous(0311024v);E;Enseignant classepréélémentaire;Sans spécialité;0;3;65 route d'Espagne 31100 TOULOUSE, 31100 Toulouse;43.574761055890356;1.4242694616074525;Ecole
1029;Toulouse;Ecole Maternelle Publique Sylvain Dauriac(0311123c);E;Enseignant classepréélémentaire;Sans spécialité;0;3;43 rue Paul Lambert BP 28 31100 TOULOUSE, 31100 Toulouse;43.5780448817893;1.4133900230221328;Ecole
1030;Toulouse;Ecole Maternelle Publique Les Pinhous(0311124d);E;Enseignant classepréélémentaire;Sans spécialité;0;2;5 rue du Recteur Dottin 31100 TOULOUSE, 31100 Toulouse;43.560917067232126;1.3979799426900497;Ecole
1031;Toulouse;Ecole Maternelle Publique Lapujade (0311250r);E;Enseignant classepréélémentaire;Sans spécialité;0;7;30  route d'Albi 31200 TOULOUSE, 31200 Toulouse;43.628704915162835;1.460717963516438;Ecole
1032;Toulouse;Ecole Maternelle Publique Chateau D'ancely(0311259a);E;Enseignant classepréélémentaire;Sans spécialité;0;5;2 allée du Vivarais 31300 TOULOUSE, 31300 Toulouse;43.61815082535193;1.3986594437981594;Ecole
1033;Toulouse;Ecole Maternelle Publique Georges Bastide(0311301w);E;Enseignant classepréélémentaire;Sans spécialité;0;3;7 rue du Recteur Dottin 31100 TOULOUSE, 31100 Toulouse;43.56070162449583;1.3976505904727765;Ecole
1034;Toulouse;Ecole Maternelle Publique Louise Michel(0311304z);E;Enseignant classepréélémentaire;Sans spécialité;0;3;22 bis rue Jules Amilhau 31100 TOULOUSE, 31100 Toulouse;43.581836680089424;1.4150802365557689;Ecole
1035;Toulouse;Ecole Maternelle Publique Maurice Jacquier(0311395y);E;Enseignant classepréélémentaire;Sans spécialité;0;3;7 rue du Poitou 31100 TOULOUSE, 31100 Toulouse;43.575550863266585;1.4184894555953098;Ecole
1037;Toulouse;Ecole Maternelle Publique Camille Claudel(0311550s);E;Enseignant classepréélémentaire;Sans spécialité;0;4;2 place Tel Aviv 31100 TOULOUSE, 31100 Toulouse;43.56525573095224;1.398110105799096;Ecole
1039;Toulouse;Ecole Maternelle Publique Victor Hugo(0311613k);E;Enseignant classepréélémentaire;Sans spécialité;1;6;6 impasse François Foulquier 31100 TOULOUSE, 31100 Toulouse;43.56520246208308;1.4032303074298005;Ecole
1040;Toulouse;Ecole Maternelle Publique Daniel Faucher(0311616n);E;Enseignant classepréélémentaire;Sans spécialité;0;5;12 cheminement André Messager 31100 TOULOUSE, 31100 Toulouse;43.57278099587277;1.4048996569580408;Ecole
1041;Toulouse;Ecole Maternelle Publique Jean Galia(0311622v);E;Enseignant classepréélémentaire;Sans spécialité;0;2;5 cheminement Robert Cambert 31100 TOULOUSE, 31100 Toulouse;43.56847228262698;1.4034401113497217;Ecole
1042;Toulouse;Ecole Maternelle Publique Simone Veil(0311661m);E;Enseignant classepréélémentaire;Sans spécialité;0;3;5 cheminement Robert Cambert 31100 TOULOUSE, 31100 Toulouse;43.56840659270936;1.4031956422090626;Ecole
1043;Toulouse;Ecole Maternelle Publique Didier Daurat(0311662n);E;Enseignant classepréélémentaire;Sans spécialité;0;3;19 rue Jean Gilles 31100 TOULOUSE, 31100 Toulouse;43.57338221341522;1.402210592237039;Ecole
1044;Toulouse;Ecole Maternelle Publique Tabar (0311695z);E;Enseignant classepréélémentaire;Sans spécialité;0;3;6 rue de la Sarthe 31100 TOULOUSE, 31100 Toulouse;43.57064715067767;1.413799948115106;Ecole
1045;Toulouse;Ecole Maternelle Publique Pech-David(0311697b);E;Enseignant classepréélémentaire;Sans spécialité;0;3;163 bis chemin de la Salade Ponsan 31400 TOULOUSE, 31400 Toulouse;43.571148900997585;1.4490326059036538;Ecole
1046;Toulouse;Ecole Maternelle Publique Ronsard (0311742a);E;Enseignant classepréélémentaire;Sans spécialité;0;4;7 rue Vestrepain 31100 TOULOUSE, 31100 Toulouse;43.584130632918736;1.4069005249184605;Ecole
1047;Toulouse;Ecole Maternelle Publique La Gloire (0311743b) E;E;Enseignant classepréélémentaire;Sans spécialité;0;2;4 impasse de Soupetard 31500 TOULOUSE, 31500 Toulouse;43.60760797835913;1.4686505761670239;Ecole
1048;Toulouse;Ecole Maternelle Publique La Terrasse(0311744c);E;Enseignant classepréélémentaire;Sans spécialité;0;1;9 impasse Trutat 31500 TOULOUSE, 31500 Toulouse;43.58348926096182;1.4859398560736286;Ecole
188300;Toulouse;Ecole Primaire Publique Ada Lovelace(0311782u);E;Enseignant classepréélémentaire;Sans spécialité;2;0;3 rue du professeur Jacques ARLET 31300 TOULOUSE, 31300 Toulouse;43.597125991611016;1.4151594229766762;Ecole
1049;Toulouse;Ecole Maternelle Publique Polygone (0311783v) E;E;Enseignant classepréélémentaire;Sans spécialité;1;4;15 rue Vincent Scotto 31300 TOULOUSE, 31300 Toulouse;43.598178746528056;1.416504865592793;Ecole
1050;Toulouse;Ecole Maternelle Publique Francoise Dolto(0311910h);E;Enseignant classepréélémentaire;Sans spécialité;0;1;11 rue de Dakar 31500 TOULOUSE, 31500 Toulouse;43.58659575763903;1.479560010337146;Ecole
1051;Toulouse;Ecole Maternelle Publique Leonce Bourliaguet(0311960m);E;Enseignant classepréélémentaire;Sans spécialité;0;4;73 rue Aristide Maillol 31100 TOULOUSE, 31100 Toulouse;43.57734563843797;1.3958700997901572;Ecole
168852;Toulouse;Ecole Maternelle D Application MauriceBecanne (0312004k);E;Enseignant classepréélémentaire;Sans spécialité;0;1;3 impasse Boutinon 31300 TOULOUSE, 31300 Toulouse;43.581867721665674;1.4263744660792073;Ecole
1054;Toulouse;Ecole Maternelle Publique Les Vergers(0312032r);E;Enseignant classepréélémentaire;Sans spécialité;0;3;1 impasse des vergers 31100 TOULOUSE, 31100 Toulouse;43.58125667838563;1.3981203177955928;Ecole
1853;Toulouse;Ecole Primaire Publique Sept-Deniers(0312080t);E;Enseignant classepréélémentaire;Sans spécialité;0;4;110 route de Blagnac 31200 TOULOUSE, 31200 Toulouse;43.61665646112352;1.4088003602598822;Ecole
1854;Toulouse;Ecole Primaire Publique Amidonniers(0312088b);E;Enseignant classepréélémentaire;Sans spécialité;0;4;123 allée de Brienne 31000 TOULOUSE, 31000 Toulouse;43.60929369282505;1.421370231531258;Ecole
1055;Toulouse;Ecole Maternelle Publique Viollet-Le-Duc(0312100p);E;Enseignant classepréélémentaire;Sans spécialité;0;2;23 rue Viollet Le Duc 31100 TOULOUSE, 31100 Toulouse;43.58115466532162;1.392069608471454;Ecole
1056;Toulouse;Ecole Maternelle Publique Elsa Triolet(0312112c);E;Enseignant classepréélémentaire;Sans spécialité;0;4;4 rue Emile Pelletier 31100 TOULOUSE, 31100 Toulouse;43.5720608341286;1.3941995277645496;Ecole
1057;Toulouse;Ecole Maternelle Publique Ferdinand DeLesseps (0312124r);E;Enseignant classepréélémentaire;Sans spécialité;1;3;7 rue Ferdinand de Lesseps 31100 TOULOUSE, 31100 Toulouse;43.57872620544203;1.3842794763034243;Ecole
188322;Toulouse;Ecole Primaire Publique Littre (0312155z);E;Enseignant classepréélémentaire;Sans spécialité;1;4;2 place Paul Bertier 31300 TOULOUSE, 31300 Toulouse;43.60805136348245;1.3777798500180434;Ecole
1058;Toulouse;Ecole Maternelle Publique Michoun (0312229e);E;Enseignant classepréélémentaire;Sans spécialité;0;4;2 impasse Lippman 31500 TOULOUSE, 31500 Toulouse;43.626398044022515;1.467320036931459;Ecole
1059;Toulouse;Ecole Maternelle Publique Le Bearnais(0312232h);E;Enseignant classepréélémentaire;Sans spécialité;0;1;3 place Intérieure Roland Garros 31200 TOULOUSE, 31200 Toulouse;43.604637438655544;1.4442101172776904;Ecole
1060;Toulouse;Ecole Maternelle Publique Montaudran(0312295b);E;Enseignant classepréélémentaire;Sans spécialité;0;4;2 impasse Bossoutrot 31400 TOULOUSE, 31400 Toulouse;43.57435822760457;1.4839700388085786;Ecole
1061;Toulouse;Ecole Maternelle Publique Gaston Dupouy(0312318b);E;Enseignant classepréélémentaire;Sans spécialité;0;2;10 rue du Prof. G. Dupouy 31100 TOULOUSE, 31100 Toulouse;43.58127521548839;1.3806795532968883;Ecole
1062;Toulouse;Ecole Maternelle Publique Amouroux(0312573d);E;Enseignant classepréélémentaire;Sans spécialité;0;3;4 rue de Saint-Tropez 31500 TOULOUSE, 31500 Toulouse;43.629578108429385;1.4675497459504223;Ecole
1063;Toulouse;Ecole Maternelle Publique Le Pastel (0312595c) E;E;Enseignant classepréélémentaire;Sans spécialité;0;2;2 chemin d'Escallès 31400 TOULOUSE, 31400 Toulouse;43.54532713138142;1.45353049682074;Ecole
1064;Toulouse;Ecole Maternelle Publique Reille (0312624j);E;Enseignant classepréélémentaire;Sans spécialité;0;2;4 bis rue Reille 31500 TOULOUSE, 31500 Toulouse;43.609763289907505;1.459479852206654;Ecole
1065;Toulouse;Ecole Maternelle Publique La Maourine(0312674n);E;Enseignant classepréélémentaire;Sans spécialité;0;3;11 avenue M Bourgès Maunoury 31200 TOULOUSE, 31200 Toulouse;43.62989813841451;1.4486195145544296;Ecole
1066;Toulouse;Ecole Maternelle Publique Les Tibaous(0312681w);E;Enseignant classepréélémentaire;Sans spécialité;0;5;5 rue Albert Carovis 31100 TOULOUSE, 31100 Toulouse;43.55029726098677;1.3843295671733236;Ecole
1067;Toulouse;Ecole Maternelle Publique Fleurance(0312682x);E;Enseignant classepréélémentaire;Sans spécialité;0;6;10 place Raymond Grimaud 31300 TOULOUSE, 31300 Toulouse;43.601092998142526;1.3697301961468251;Ecole
1068;Toulouse;Ecole Maternelle Publique Borderouge(0312708a);E;Enseignant classepréélémentaire;Sans spécialité;1;5;4 rue Antoine Pastre 31200 TOULOUSE, 31200 Toulouse;43.64162779390806;1.454909737206173;Ecole
1855;Toulouse;Ecole Primaire Publique Olympe De Gouges(0312722r);E;Enseignant classepréélémentaire;Sans spécialité;0;5;12 rue Virginia Woolf 31200 TOULOUSE, 31200 Toulouse;43.654516093000474;1.4396497623937492;Ecole
1856;Toulouse;Ecole Primaire Publique Jean-Pierre Vernant(0312769s);E;Enseignant classepréélémentaire;Sans spécialité;1;2;1 rue René Goscinny 31400 TOULOUSE, 31400 Toulouse;43.55028201674248;1.457769543098067;Ecole
1069;Toulouse;Ecole Maternelle Publique Jean Zay (0312792s);E;Enseignant classepréélémentaire;Sans spécialité;1;5;5-7 rue des Bouquetins 31200 TOULOUSE, 31200 Toulouse;43.64120377966383;1.4475093592492014;Ecole
1857;Toulouse;Ecole Primaire Publique Ponts Jumeaux(0312852g);E;Enseignant classepréélémentaire;Sans spécialité;0;4;1 rue Henri Docquiert 31200 TOULOUSE, 31200 Toulouse;43.6147882497205;1.421890375737284;Ecole
1858;Toulouse;Ecole Primaire Publique Guilhermy (0312870b);E;Enseignant classepréélémentaire;Sans spécialité;0;6;7 rue de las Brugues 31100 TOULOUSE, 31100 Toulouse;43.56728428376914;1.372159383262392;Ecole
141940;Toulouse;Ecole Primaire Niboul (0312871c);E;Enseignant classepréélémentaire;Sans spécialité;0;5;9 rue Arria Ly 31200 TOULOUSE, 31200 Toulouse;43.6400257262731;1.4500320483205769;Ecole
1859;Toulouse;Ecole Primaire Genevieve De Gaulle Anthonioz(0312921g);E;Enseignant classepréélémentaire;Sans spécialité;0;7;7 rue Marie de Gournay 31300 TOULOUSE, 31300 Toulouse;43.600507097619634;1.4061176505136046;Ecole
1071;Toulouse;Ecole Maternelle Publique Lucie Aubrac(0312941d);E;Enseignant classepréélémentaire;Sans spécialité;0;5;29 route de Launaguet 31200 TOULOUSE, 31200 Toulouse;43.62893638226729;1.4375196495893658;Ecole
1860;Toulouse;Ecole Primaire Publique Germaine Tillion(0312943f);E;Enseignant classepréélémentaire;Sans spécialité;0;4;2 rue Césaria EVORA 31000 TOULOUSE, 31000 Toulouse;43.584304661071585;1.3917188963576546;Ecole
1072;Toulouse;Ecole Maternelle Publique Jules-Geraud Saliege(0312963c);E;Enseignant classepréélémentaire;Sans spécialité;0;9;7 impasse Jean Alphand 31200 TOULOUSE, 31200 Toulouse;43.654874890405274;1.43387000786061;Ecole
1861;Toulouse;Ecole Primaire Georges Mailhos (0312975r);E;Enseignant classepréélémentaire;Sans spécialité;1;5;Quartier malepère 31400 TOULOUSE, 31400 Toulouse;43.56287570701777;1.504629229891012;Ecole
1862;Toulouse;Ecole Primaire Josephine Baker (0312977t);E;Enseignant classepréélémentaire;Sans spécialité;0;8;17 chemin Dortis 31200 TOULOUSE, 31200 Toulouse;43.6669884007469;1.4354197491489133;Ecole
1863;Toulouse;Ecole Primaire Canto Laouzetto (0313018m);E;Enseignant classepréélémentaire;Sans spécialité;1;5;111 chemin de Canto Laouzeto 31100 TOULOUSE, 31100 Toulouse;43.55987045373459;1.3881909166897084;Ecole
1864;Toulouse;Ecole Primaire Fenelon (0313046t);E;Enseignant classepréélémentaire;Sans spécialité;1;4;34 rue Fénélon 31200 TOULOUSE, 31200 Toulouse;43.64951810287924;1.4531602242534822;Ecole
168862;Toulouse;Ecole Primaire Publique Emilie Du Chatelet(0313131k);E;Enseignant classepréélémentaire;Sans spécialité;1;3;1 avenue Maxwell 31100 TOULOUSE, 31100 Toulouse;43.59099986523695;1.3681014903089366;Ecole
188053;Toulouse;Ecole Primaire Publique Marie De Gournay(0313234x);E;Enseignant classepréélémentaire;Sans spécialité;1;0;Rue Gertrude Bell 31400 TOULOUSE, 31400 Toulouse;;;Ecole
188055;Toulouse;Ecole Maternelle Publique Marie Marvingt(0313235y);E;Enseignant classepréélémentaire;Sans spécialité;1;5;Esplanade Pierre Garrigues 31400 TOULOUSE, 31400 Toulouse;;;Ecole
